[{"OBJECT_NAME":"HORYU-4","OBJECT_ID":"2016-012D","EPOCH":"2026-03-09T02:00:11.986848","MEAN_MOTION":15.62775175,"ECCENTRICITY":0.000296,"INCLINATION":30.9916,"RA_OF_ASC_NODE":72.2531,"ARG_OF_PERICENTER":145.5541,"MEAN_ANOMALY":214.5304,"EPHEMERIS_TYPE":0,"CLASSIFICATION_TYPE":"U","NORAD_CAT_ID":41340,"ELEMENT_SET_NO":999,"REV_AT_EPOCH":55501,"BSTAR":0.0010658734,"MEAN_MOTION_DOT":0.00100952,"MEAN_MOTION_DDOT":0},{"OBJECT_NAME":"HYDRA-W","OBJECT_ID":"2025-052BL","EPOCH":"2026-03-09T06:09:33.308928","MEAN_MOTION":15.62903885,"ECCENTRICITY":0.00091126,"INCLINATION":97.3927,"RA_OF_ASC_NODE":329.3965,"ARG_OF_PERICENTER":107.1858,"MEAN_ANOMALY":253.0398,"EPHEMERIS_TYPE":0,"CLASSIFICATION_TYPE":"U","NORAD_CAT_ID":63490,"ELEMENT_SET_NO":999,"REV_AT_EPOCH":5512,"BSTAR":0.0023110181,"MEAN_MOTION_DOT":0.00214089,"MEAN_MOTION_DDOT":0}]
