HORYU-4                 
1 41340U 16012D   26068.08347207  .00100952  00000+0  10659-2 0  9994
2 41340  30.9916  72.2531 0002960 145.5541 214.5304 15.62775175555015
HYDRA-W                 
1 63490U 25052BL  26068.25663552  .00214089  00000+0  23110-2 0  9994
2 63490  97.3927 329.3965 0009112 107.1858 253.0398 15.62903885 55121
